<?xml version="1.0" encoding="UTF-8"?>
<ndm xmlns:xsi="http://www.w3.org/2001/XMLSchema-instance" xsi:noNamespaceSchemaLocation="https://sanaregistry.org/r/ndmxml_unqualified/ndmxml-2.0.0-master-2.0.xsd">
<omm id="CCSDS_OMM_VERS" version="2.0">
<header><CREATION_DATE/><ORIGINATOR/></header><body><segment><metadata><OBJECT_NAME>ONEWEB-0687</OBJECT_NAME><OBJECT_ID>2024-188B</OBJECT_ID><CENTER_NAME>EARTH</CENTER_NAME><REF_FRAME>TEME</REF_FRAME><TIME_SYSTEM>UTC</TIME_SYSTEM><MEAN_ELEMENT_THEORY>SGP4</MEAN_ELEMENT_THEORY></metadata><data><meanElements><EPOCH>2024-11-30T05:02:54.805056</EPOCH><MEAN_MOTION>14.82837527</MEAN_MOTION><ECCENTRICITY>.0006407</ECCENTRICITY><INCLINATION>86.5775</INCLINATION><RA_OF_ASC_NODE>152.9087</RA_OF_ASC_NODE><ARG_OF_PERICENTER>82.4063</ARG_OF_PERICENTER><MEAN_ANOMALY>277.7887</MEAN_ANOMALY></meanElements><tleParameters><EPHEMERIS_TYPE>0</EPHEMERIS_TYPE><CLASSIFICATION_TYPE>U</CLASSIFICATION_TYPE><NORAD_CAT_ID>61595</NORAD_CAT_ID><ELEMENT_SET_NO>999</ELEMENT_SET_NO><REV_AT_EPOCH>732</REV_AT_EPOCH><BSTAR>.40935E-3</BSTAR><MEAN_MOTION_DOT>.3339E-4</MEAN_MOTION_DOT><MEAN_MOTION_DDOT>0</MEAN_MOTION_DDOT></tleParameters></data></segment></body></omm>
<omm id="CCSDS_OMM_VERS" version="2.0">
<header><CREATION_DATE/><ORIGINATOR/></header><body><segment><metadata><OBJECT_NAME>ONEWEB-0688</OBJECT_NAME><OBJECT_ID>2024-188C</OBJECT_ID><CENTER_NAME>EARTH</CENTER_NAME><REF_FRAME>TEME</REF_FRAME><TIME_SYSTEM>UTC</TIME_SYSTEM><MEAN_ELEMENT_THEORY>SGP4</MEAN_ELEMENT_THEORY></metadata><data><meanElements><EPOCH>2024-11-30T05:07:37.098912</EPOCH><MEAN_MOTION>14.82833656</MEAN_MOTION><ECCENTRICITY>.000597</ECCENTRICITY><INCLINATION>86.5774</INCLINATION><RA_OF_ASC_NODE>152.9206</RA_OF_ASC_NODE><ARG_OF_PERICENTER>84.2118</ARG_OF_PERICENTER><MEAN_ANOMALY>275.9785</MEAN_ANOMALY></meanElements><tleParameters><EPHEMERIS_TYPE>0</EPHEMERIS_TYPE><CLASSIFICATION_TYPE>U</CLASSIFICATION_TYPE><NORAD_CAT_ID>61596</NORAD_CAT_ID><ELEMENT_SET_NO>999</ELEMENT_SET_NO><REV_AT_EPOCH>709</REV_AT_EPOCH><BSTAR>.23788E-3</BSTAR><MEAN_MOTION_DOT>.1951E-4</MEAN_MOTION_DOT><MEAN_MOTION_DDOT>0</MEAN_MOTION_DDOT></tleParameters></data></segment></body></omm>
<omm id="CCSDS_OMM_VERS" version="2.0">
<header><CREATION_DATE/><ORIGINATOR/></header><body><segment><metadata><OBJECT_NAME>ONEWEB-0689</OBJECT_NAME><OBJECT_ID>2024-188D</OBJECT_ID><CENTER_NAME>EARTH</CENTER_NAME><REF_FRAME>TEME</REF_FRAME><TIME_SYSTEM>UTC</TIME_SYSTEM><MEAN_ELEMENT_THEORY>SGP4</MEAN_ELEMENT_THEORY></metadata><data><meanElements><EPOCH>2024-11-25T00:25:24.466656</EPOCH><MEAN_MOTION>14.83093397</MEAN_MOTION><ECCENTRICITY>.0003997</ECCENTRICITY><INCLINATION>86.5708</INCLINATION><RA_OF_ASC_NODE>155.1270</RA_OF_ASC_NODE><ARG_OF_PERICENTER>96.6271</ARG_OF_PERICENTER><MEAN_ANOMALY>263.5407</MEAN_ANOMALY></meanElements><tleParameters><EPHEMERIS_TYPE>0</EPHEMERIS_TYPE><CLASSIFICATION_TYPE>U</CLASSIFICATION_TYPE><NORAD_CAT_ID>61597</NORAD_CAT_ID><ELEMENT_SET_NO>999</ELEMENT_SET_NO><REV_AT_EPOCH>639</REV_AT_EPOCH><BSTAR>.22479E-4</BSTAR><MEAN_MOTION_DOT>.21E-5</MEAN_MOTION_DOT><MEAN_MOTION_DDOT>0</MEAN_MOTION_DDOT></tleParameters></data></segment></body></omm>
<omm id="CCSDS_OMM_VERS" version="2.0">
<header><CREATION_DATE/><ORIGINATOR/></header><body><segment><metadata><OBJECT_NAME>ONEWEB-0690</OBJECT_NAME><OBJECT_ID>2024-188E</OBJECT_ID><CENTER_NAME>EARTH</CENTER_NAME><REF_FRAME>TEME</REF_FRAME><TIME_SYSTEM>UTC</TIME_SYSTEM><MEAN_ELEMENT_THEORY>SGP4</MEAN_ELEMENT_THEORY></metadata><data><meanElements><EPOCH>2024-11-29T10:56:19.169952</EPOCH><MEAN_MOTION>14.83008685</MEAN_MOTION><ECCENTRICITY>.0008086</ECCENTRICITY><INCLINATION>86.5754</INCLINATION><RA_OF_ASC_NODE>153.2179</RA_OF_ASC_NODE><ARG_OF_PERICENTER>82.5164</ARG_OF_PERICENTER><MEAN_ANOMALY>277.6977</MEAN_ANOMALY></meanElements><tleParameters><EPHEMERIS_TYPE>0</EPHEMERIS_TYPE><CLASSIFICATION_TYPE>U</CLASSIFICATION_TYPE><NORAD_CAT_ID>61598</NORAD_CAT_ID><ELEMENT_SET_NO>999</ELEMENT_SET_NO><REV_AT_EPOCH>893</REV_AT_EPOCH><BSTAR>-.89649E-2</BSTAR><MEAN_MOTION_DOT>-.72009E-3</MEAN_MOTION_DOT><MEAN_MOTION_DDOT>0</MEAN_MOTION_DDOT></tleParameters></data></segment></body></omm>
<omm id="CCSDS_OMM_VERS" version="2.0">
<header><CREATION_DATE/><ORIGINATOR/></header><body><segment><metadata><OBJECT_NAME>ONEWEB-0691</OBJECT_NAME><OBJECT_ID>2024-188F</OBJECT_ID><CENTER_NAME>EARTH</CENTER_NAME><REF_FRAME>TEME</REF_FRAME><TIME_SYSTEM>UTC</TIME_SYSTEM><MEAN_ELEMENT_THEORY>SGP4</MEAN_ELEMENT_THEORY></metadata><data><meanElements><EPOCH>2024-11-29T11:10:28.497504</EPOCH><MEAN_MOTION>14.82838279</MEAN_MOTION><ECCENTRICITY>.0007118</ECCENTRICITY><INCLINATION>86.5809</INCLINATION><RA_OF_ASC_NODE>153.2416</RA_OF_ASC_NODE><ARG_OF_PERICENTER>84.9174</ARG_OF_PERICENTER><MEAN_ANOMALY>275.2861</MEAN_ANOMALY></meanElements><tleParameters><EPHEMERIS_TYPE>0</EPHEMERIS_TYPE><CLASSIFICATION_TYPE>U</CLASSIFICATION_TYPE><NORAD_CAT_ID>61599</NORAD_CAT_ID><ELEMENT_SET_NO>999</ELEMENT_SET_NO><REV_AT_EPOCH>893</REV_AT_EPOCH><BSTAR>-.9012E-3</BSTAR><MEAN_MOTION_DOT>-.7252E-4</MEAN_MOTION_DOT><MEAN_MOTION_DDOT>0</MEAN_MOTION_DDOT></tleParameters></data></segment></body></omm>
<omm id="CCSDS_OMM_VERS" version="2.0">
<header><CREATION_DATE/><ORIGINATOR/></header><body><segment><metadata><OBJECT_NAME>ONEWEB-0692</OBJECT_NAME><OBJECT_ID>2024-188G</OBJECT_ID><CENTER_NAME>EARTH</CENTER_NAME><REF_FRAME>TEME</REF_FRAME><TIME_SYSTEM>UTC</TIME_SYSTEM><MEAN_ELEMENT_THEORY>SGP4</MEAN_ELEMENT_THEORY></metadata><data><meanElements><EPOCH>2024-11-27T18:53:51.975168</EPOCH><MEAN_MOTION>14.83086126</MEAN_MOTION><ECCENTRICITY>.0004217</ECCENTRICITY><INCLINATION>86.5729</INCLINATION><RA_OF_ASC_NODE>153.9552</RA_OF_ASC_NODE><ARG_OF_PERICENTER>118.0616</ARG_OF_PERICENTER><MEAN_ANOMALY>242.1034</MEAN_ANOMALY></meanElements><tleParameters><EPHEMERIS_TYPE>0</EPHEMERIS_TYPE><CLASSIFICATION_TYPE>U</CLASSIFICATION_TYPE><NORAD_CAT_ID>61600</NORAD_CAT_ID><ELEMENT_SET_NO>999</ELEMENT_SET_NO><REV_AT_EPOCH>868</REV_AT_EPOCH><BSTAR>.22709E-3</BSTAR><MEAN_MOTION_DOT>.1874E-4</MEAN_MOTION_DOT><MEAN_MOTION_DDOT>0</MEAN_MOTION_DDOT></tleParameters></data></segment></body></omm>
<omm id="CCSDS_OMM_VERS" version="2.0">
<header><CREATION_DATE/><ORIGINATOR/></header><body><segment><metadata><OBJECT_NAME>ONEWEB-0693</OBJECT_NAME><OBJECT_ID>2024-188H</OBJECT_ID><CENTER_NAME>EARTH</CENTER_NAME><REF_FRAME>TEME</REF_FRAME><TIME_SYSTEM>UTC</TIME_SYSTEM><MEAN_ELEMENT_THEORY>SGP4</MEAN_ELEMENT_THEORY></metadata><data><meanElements><EPOCH>2024-11-25T00:25:52.328064</EPOCH><MEAN_MOTION>14.83156173</MEAN_MOTION><ECCENTRICITY>.0003903</ECCENTRICITY><INCLINATION>86.5700</INCLINATION><RA_OF_ASC_NODE>155.1239</RA_OF_ASC_NODE><ARG_OF_PERICENTER>100.3997</ARG_OF_PERICENTER><MEAN_ANOMALY>259.7666</MEAN_ANOMALY></meanElements><tleParameters><EPHEMERIS_TYPE>0</EPHEMERIS_TYPE><CLASSIFICATION_TYPE>U</CLASSIFICATION_TYPE><NORAD_CAT_ID>61601</NORAD_CAT_ID><ELEMENT_SET_NO>999</ELEMENT_SET_NO><REV_AT_EPOCH>827</REV_AT_EPOCH><BSTAR>.53509E-3</BSTAR><MEAN_MOTION_DOT>.4389E-4</MEAN_MOTION_DOT><MEAN_MOTION_DDOT>0</MEAN_MOTION_DDOT></tleParameters></data></segment></body></omm>
<omm id="CCSDS_OMM_VERS" version="2.0">
<header><CREATION_DATE/><ORIGINATOR/></header><body><segment><metadata><OBJECT_NAME>ONEWEB-0695</OBJECT_NAME><OBJECT_ID>2024-188J</OBJECT_ID><CENTER_NAME>EARTH</CENTER_NAME><REF_FRAME>TEME</REF_FRAME><TIME_SYSTEM>UTC</TIME_SYSTEM><MEAN_ELEMENT_THEORY>SGP4</MEAN_ELEMENT_THEORY></metadata><data><meanElements><EPOCH>2024-11-30T11:40:31.589472</EPOCH><MEAN_MOTION>14.82816185</MEAN_MOTION><ECCENTRICITY>.0003761</ECCENTRICITY><INCLINATION>86.5755</INCLINATION><RA_OF_ASC_NODE>152.8038</RA_OF_ASC_NODE><ARG_OF_PERICENTER>87.4150</ARG_OF_PERICENTER><MEAN_ANOMALY>272.7503</MEAN_ANOMALY></meanElements><tleParameters><EPHEMERIS_TYPE>0</EPHEMERIS_TYPE><CLASSIFICATION_TYPE>U</CLASSIFICATION_TYPE><NORAD_CAT_ID>61602</NORAD_CAT_ID><ELEMENT_SET_NO>999</ELEMENT_SET_NO><REV_AT_EPOCH>732</REV_AT_EPOCH><BSTAR>.37794E-3</BSTAR><MEAN_MOTION_DOT>.3082E-4</MEAN_MOTION_DOT><MEAN_MOTION_DDOT>0</MEAN_MOTION_DDOT></tleParameters></data></segment></body></omm>

</ndm>
