ONEWEB-0687             
1 61595U 24188B   24335.21035654  .00003339  00000+0  40935-3 0  9993
2 61595  86.5775 152.9087 0006407  82.4063 277.7887 14.82837527  7323
ONEWEB-0688             
1 61596U 24188C   24335.21362383  .00001951  00000+0  23788-3 0  9991
2 61596  86.5774 152.9206 0005970  84.2118 275.9785 14.82833656  7091
ONEWEB-0689             
1 61597U 24188D   24330.01764429  .00000210  00000+0  22479-4 0  9996
2 61597  86.5708 155.1270 0003997  96.6271 263.5407 14.83093397  6396
ONEWEB-0690             
1 61598U 24188E   24334.45577743 -.00072009  00000+0 -89649-2 0  9997
2 61598  86.5754 153.2179 0008086  82.5164 277.6977 14.83008685  8930
ONEWEB-0691             
1 61599U 24188F   24334.46560761 -.00007252  00000+0 -90120-3 0  9996
2 61599  86.5809 153.2416 0007118  84.9174 275.2861 14.82838279  8933
ONEWEB-0692             
1 61600U 24188G   24332.78740712  .00001874  00000+0  22709-3 0  9998
2 61600  86.5729 153.9552 0004217 118.0616 242.1034 14.83086126  8686
ONEWEB-0693             
1 61601U 24188H   24330.01796676  .00004389  00000+0  53509-3 0  9999
2 61601  86.5700 155.1239 0003903 100.3997 259.7666 14.83156173  8279
ONEWEB-0695             
1 61602U 24188J   24335.48647673  .00003082  00000+0  37794-3 0  9995
2 61602  86.5755 152.8038 0003761  87.4150 272.7503 14.82816185  7324
